UNKNOWN                 
1 81311U          26089.96341300  .00001005  00000+0  21133-3 0  9993
2 81311  98.7122 157.2576 0131591 153.4071  19.5197 14.56720039655341
UNKNOWN                 
1 81317U          26086.89985143  .00000075  00000+0  23068-3 0  9992
2 81317  67.1376 305.0674 0216764 321.0643  51.7514 13.38058486602706
UNKNOWN                 
1 81329U          26085.44629429  .00000769  00000+0  29440-3 0  9997
2 81329  65.8185 252.8345 0836355 343.0357  14.4185 13.22777555591790
UNKNOWN                 
1 81343U          26090.57069735  .00006915  00000+0  47820-3 0  9992
2 81343  85.8730 141.1431 0007905 207.7285 152.3529 15.05527304470683
UNKNOWN                 
1 81359U          26090.54711367  .00000661  00000+0  68156-3 0  9998
2 81359  66.7979 151.5259 0120513 253.4232 105.3577 13.79018029620481
UNKNOWN                 
1 81366U          26086.53428863  .00000530  00000+0  21477-3 0  9996
2 81366  65.8825 183.9701 0713881  30.5600 333.5089 13.45413471 80058
UNKNOWN                 
1 81371U          26090.55398683  .00004191  00000+0  66269-3 0  9990
2 81371  98.8119 200.7829 0068918  26.3445 334.1237 14.71335690657833
UNKNOWN                 
1 81386U          26086.40325342  .00003923  00000+0  12632-2 0  9993
2 81386  71.0460 129.2323 0091473 278.6144  80.4635 14.37509397639275
UNKNOWN                 
1 81390U          26084.96397236 -.00000367  00000+0 -23732-2 0  9992
2 81390 103.1053 345.5499 0176635 325.0175  33.9382 12.35612464512848
UNKNOWN                 
1 81392U          26089.80158224  .00003487  00000+0  32469-2 0  9995
2 81392 100.4064  94.0474 0042137 116.4095  60.6828 13.82434088617107
UNKNOWN                 
1 81405U          26073.89719008  .00001447  00000+0  11126-2 0  9996
2 81405  99.4590 128.5260 0157520 337.4444  21.9841 13.89179281574593
UNKNOWN                 
1 81406U          26090.21683365  .00000967  00000+0  40501-3 0  9994
2 81406  65.8126 270.5346 0867514 271.9483  78.2537 13.12608920547911
